[{"OBJECT_NAME":"AETHER-9","OBJECT_ID":"2026-004T","EPOCH":"2026-03-09T23:31:56.232480","MEAN_MOTION":14.87919538,"ECCENTRICITY":0.00064611,"INCLINATION":97.8002,"RA_OF_ASC_NODE":69.182,"ARG_OF_PERICENTER":98.1292,"MEAN_ANOMALY":262.0657,"EPHEMERIS_TYPE":0,"CLASSIFICATION_TYPE":"U","NORAD_CAT_ID":67380,"ELEMENT_SET_NO":999,"REV_AT_EPOCH":853,"BSTAR":0.00014996524,"MEAN_MOTION_DOT":1.32e-5,"MEAN_MOTION_DDOT":0},{"OBJECT_NAME":"CZ-6A DEB","OBJECT_ID":"2022-151XR","EPOCH":"2026-03-07T05:13:23.585376","MEAN_MOTION":14.86365371,"ECCENTRICITY":0.0030591,"INCLINATION":98.768,"RA_OF_ASC_NODE":152.5166,"ARG_OF_PERICENTER":191.5134,"MEAN_ANOMALY":168.5383,"EPHEMERIS_TYPE":0,"CLASSIFICATION_TYPE":"U","NORAD_CAT_ID":55519,"ELEMENT_SET_NO":999,"REV_AT_EPOCH":17058,"BSTAR":0.0071908,"MEAN_MOTION_DOT":0.00064446,"MEAN_MOTION_DDOT":0}]
